"id","created","last_modified","version","address_type","city","country","email_address","phone_number","street","street_number","zip_code","company_id"
"2852bdcf-b78c-4f36-977d-b2c8bce5cb18",2025-05-10 13:46:33.400,2025-05-10 13:46:33.400,0,main,Lake Mercyport,Palau,hayes_welch@example.com,"906-648-8669",Benita Crescent,"738","79483",cf578fec-006b-4604-a5e8-5ad1b3ea2be5
e3d2061e-ef6b-4f94-9442-43bdf4f1f6c7,2025-05-10 14:16:54.991,2025-05-10 14:16:54.991,0,main,West Aleasestad,Kenya,hayes_welch@example.com,"251.126.8153",Huey Rapid,"55","20624",cf578fec-006b-4604-a5e8-5ad1b3ea2be5
"3b99df53-4af1-4b2c-a043-8a0b741db66c",2025-05-10 14:16:55.013,2025-05-10 14:16:55.013,0,main,Port Jackie,Kazakhstan,hayes_welch@example.com,"1-444-809-8547",Marlin Turnpike,"825","86298-8021",cf578fec-006b-4604-a5e8-5ad1b3ea2be5
"69e3b187-1e05-4b30-ad3e-c5b9baa6893a",2025-05-10 14:16:55.024,2025-05-10 14:16:55.024,0,main,New Maraport,Angola,pouros_group@example.com,(253) 024-5495,Stehr Mountain,"583","18686","489da321-243c-44fa-a14f-509ebfbad683"
"015e26bb-bb84-4807-ab18-c1bf7ff41ada",2025-05-10 14:16:55.033,2025-05-10 14:16:55.033,0,main,Emanuelchester,South Africa,pouros_group@example.com,(445) 266-0614,Schoen Villages,"953","47045-1696","489da321-243c-44fa-a14f-509ebfbad683"
"52f001a1-0eb2-4555-a14e-566130a3023a",2025-05-10 14:16:55.043,2025-05-10 14:16:55.043,0,main,East Milford,Lebanon,hintz_parisian_and_sanford@example.com,"630.227.8816",Roderick Plaza,"213","84903-1699","08cd2530-227e-4ee7-aa7f-7efe37eb607c"
c0962553-395e-49e6-9c53-4746e410021f,2025-05-10 14:16:55.050,2025-05-10 14:16:55.050,0,main,Lake Maddie,Myanmar,hintz_parisian_and_sanford@example.com,"718.085.7170",Brekke Village,"596","26676","08cd2530-227e-4ee7-aa7f-7efe37eb607c"
cd24f532-a8f0-4f9e-a8ff-e8143a0f6e24,2025-05-10 14:16:55.056,2025-05-10 14:16:55.056,0,main,Lake Cathey,Saint Helena,shanahan_krajcik_and_leuschke@example.com,(918) 091-4805,Vernia Drive,"353","82169","9b4b702d-41b6-4f60-8f7e-da621ae07a5c"
"7cea1879-eaef-43a5-9961-72fc2d302af2",2025-05-10 14:16:55.063,2025-05-10 14:16:55.063,0,main,Maxfurt,Brazil,shanahan_krajcik_and_leuschke@example.com,"633.268.7113",Russel Route,"52","20135-9608","9b4b702d-41b6-4f60-8f7e-da621ae07a5c"
c8afbe71-1097-41a7-aa6e-d13cbb303e81,2025-05-10 14:16:55.070,2025-05-10 14:16:55.070,0,main,North Clement,Italy,tillman_sipes@example.com,"1-215-501-0446",Omer Locks,"909","44917","25eddaea-6b44-4ebf-ab48-bf45e634dc94"
f2f9140f-c3e7-46a7-9a59-2283e028463f,2025-05-10 14:16:55.076,2025-05-10 14:16:55.076,0,main,Schmelerburgh,Guyana,tillman_sipes@example.com,"1-127-948-3749",Malka Keys,"361","05838-9836","25eddaea-6b44-4ebf-ab48-bf45e634dc94"
"5c9e06cd-9b53-4c41-86ba-b04fd6458170",2025-05-10 14:16:55.084,2025-05-10 14:16:55.085,0,main,Bartontown,Christmas Island,strosin_hodkiewicz@example.com,"641.037.5315",Rosena Street,"418","94916-2080",c3ba6aea-9220-4a5a-b32c-964770fc2aad
"3bc9ebfa-5366-4ad6-aca1-ec5453a25b66",2025-05-10 14:16:55.091,2025-05-10 14:16:55.091,0,main,North Peteport,Dominica,strosin_hodkiewicz@example.com,"872.164.3878",Bartell Spur,"302","12117-4734",c3ba6aea-9220-4a5a-b32c-964770fc2aad
"52d03d06-d50b-4769-b6cf-7c1f0ee91f20",2025-05-10 14:16:55.096,2025-05-10 14:16:55.096,0,main,Meldafurt,Equatorial Guinea,dare_nikolaus_and_bruen@example.com,"661-795-2615",Veronika Lodge,"930","39619","7c872159-c95d-4ca5-9fb3-1e2404d88f12"
"4ab3522c-d834-4564-9d0c-eda01ea06325",2025-05-10 14:16:55.104,2025-05-10 14:16:55.104,0,main,Louannefurt,Heard Island and McDonald Islands,dare_nikolaus_and_bruen@example.com,(513) 086-3830,Baumbach Walks,"462","72537-4574","7c872159-c95d-4ca5-9fb3-1e2404d88f12"
a45914f2-96b1-48bd-867c-b25253aff2cf,2025-05-10 14:16:55.111,2025-05-10 14:16:55.111,0,main,Lake Zacheryside,Zambia,deckow_and_sons@example.com,"1-320-746-0382",Lehner Extensions,"195","35513","34ec8da8-c9cd-42a6-9a6e-b99b4c10503a"
"113123c5-34db-4239-b849-072dc262531a",2025-05-10 14:16:55.116,2025-05-10 14:16:55.116,0,main,Lylamouth,Jordan,deckow_and_sons@example.com,(614) 788-7658,Samuel Village,"160","25625-5172","34ec8da8-c9cd-42a6-9a6e-b99b4c10503a"
bad8549b-3d98-4e95-b604-39780b1d61ca,2025-05-10 14:16:55.121,2025-05-10 14:16:55.121,0,main,West Morton,Vanuatu,kreiger_and_sons@example.com,"1-952-889-7863",Hilll Crest,"172","62968-0307","84f548ed-77a8-4b44-b281-306100bdd1b8"
a1c0a0a6-b683-4d93-8fd9-902f32c7a8d5,2025-05-10 14:16:55.124,2025-05-10 14:16:55.124,0,main,New Donnie,Uruguay,kreiger_and_sons@example.com,"684.180.3697",Weimann Motorway,"688","57022","84f548ed-77a8-4b44-b281-306100bdd1b8"
"42bd1e13-49ce-4454-9e2f-9ef73d5697c3",2025-05-10 14:16:55.127,2025-05-10 14:16:55.127,0,main,West Shawnshire,Malaysia,mraz_llc@example.com,"1-153-263-0738",Kerluke Cove,"72","03929",bef33ef4-8b52-4b02-b4d7-8e07a1ff747e
cd5324e0-5731-4851-8db5-268fca8d2532,2025-05-10 14:16:55.130,2025-05-10 14:16:55.130,0,main,South Jason,Macao,mraz_llc@example.com,"655.169.8870",Luther Throughway,"911","80440",bef33ef4-8b52-4b02-b4d7-8e07a1ff747e
d6493ea7-ff35-4887-9c3c-506697eb6af3,2025-05-10 14:16:55.135,2025-05-10 14:16:55.135,0,main,Franeckichester,Micronesia,skiles_llc@example.com,"151-885-9448",Aletha Skyway,"21","31025-1346","9fc335b4-3a7a-41fb-a711-96e3cf3f1820"
c4a924b9-d4e4-4346-84f5-cdca4e7681c3,2025-05-10 14:16:55.138,2025-05-10 14:16:55.138,0,main,Lake Margot,Democratic People's Republic of Korea,skiles_llc@example.com,"222-462-1475",Hank Drive,"776","35692","9fc335b4-3a7a-41fb-a711-96e3cf3f1820"
"11d21f89-32b8-4751-ac5e-a7ef869012df",2025-05-10 14:16:55.142,2025-05-10 14:16:55.142,0,main,New Meta,Bahamas,moore_inc@example.com,"788-586-4138",Wolff Freeway,"720","07541","379530ea-b648-41aa-899a-99e37ad8eb55"
"7f0e218d-d158-409b-a97d-b103ff75bdd0",2025-05-10 14:16:55.144,2025-05-10 14:16:55.144,0,main,South Sterlingborough,United States Minor Outlying Islands,moore_inc@example.com,"073-420-1706",Brain Corners,"842","37762","379530ea-b648-41aa-899a-99e37ad8eb55"
c62bd0f0-02f2-4569-95ad-c3e1eb23ee61,2025-05-10 14:16:55.146,2025-05-10 14:16:55.146,0,main,West Ferdinand,Philippines,padberg_inc@example.com,"522.143.3508",Ferry Crest,"456","49146","1714a24e-12aa-44fe-b5bc-7eb5953cb7fe"
"69ed2b7e-58e4-4307-86c4-baf277072ab9",2025-05-10 14:16:55.149,2025-05-10 14:16:55.149,0,main,East Vanna,Botswana,padberg_inc@example.com,"991-201-5340",Ayana Plains,"913","68827-9668","1714a24e-12aa-44fe-b5bc-7eb5953cb7fe"
e2135655-e306-49d9-8651-61ded9eeeb14,2025-05-10 14:16:55.151,2025-05-10 14:16:55.151,0,main,New Ian,Nepal,jacobi_hodkiewicz_and_nitzsche@example.com,"303-923-1858",Hackett Springs,"56","28270","3a04bbc8-8527-4609-a8fe-66db91583f66"
df888a52-4378-4df9-9a5f-b991d036757c,2025-05-10 14:16:55.154,2025-05-10 14:16:55.154,0,main,West Roseann,Myanmar,jacobi_hodkiewicz_and_nitzsche@example.com,"559-735-4443",Kemmer Rest,"255","83286-0920","3a04bbc8-8527-4609-a8fe-66db91583f66"
f52a4d67-51f6-4be9-9308-37330ee191b5,2025-05-10 14:16:55.158,2025-05-10 14:16:55.158,0,main,Rossborough,Gambia,kuvalis_rath_and_mayert@example.com,"831.460.4556",Isaias Light,"638","17022-2543","799f67e8-3d67-40f0-827a-4721c5c9634a"
"2233834d-938a-477e-93e9-cf9addf51e2b",2025-05-10 14:16:55.161,2025-05-10 14:16:55.161,0,main,East Asleyfort,Iceland,kuvalis_rath_and_mayert@example.com,"1-952-717-1943",Reynolds Station,"462","92250","799f67e8-3d67-40f0-827a-4721c5c9634a"
"7fa05788-87f5-4728-aebb-12538b079752",2025-05-10 14:16:55.164,2025-05-10 14:16:55.164,0,main,Lizabethfurt,Republic of Korea,hilpert_lowe_and_mosciski@example.com,(561) 074-5982,Wilderman Viaduct,"173","45046","3d9c7162-0095-4be9-b317-9d5284b323f7"
c4f3bc6f-a824-4e01-8422-c7480916c4fd,2025-05-10 14:16:55.167,2025-05-10 14:16:55.167,0,main,Martymouth,Nigeria,hilpert_lowe_and_mosciski@example.com,(872) 826-7114,Claude Keys,"471","41660-1038","3d9c7162-0095-4be9-b317-9d5284b323f7"
"9e11a4d4-2e6b-4e1f-82a8-d970f7734b61",2025-05-10 14:16:55.169,2025-05-10 14:16:55.169,0,main,Mervinmouth,Madagascar,purdy_kreiger@example.com,"355.481.1497",Klocko Port,"293","05886-2392",d64b617f-913c-4dc8-9730-0a6594f0750e
"16881781-3d51-405b-8406-f4be3ff7cfff",2025-05-10 14:16:55.172,2025-05-10 14:16:55.172,0,main,North Pasqualeberg,Sri Lanka,purdy_kreiger@example.com,"1-101-661-6690",Tamie Passage,"662","19106",d64b617f-913c-4dc8-9730-0a6594f0750e
a3ee33b3-17d3-4ff9-8059-950457d9858e,2025-05-10 14:16:55.175,2025-05-10 14:16:55.175,0,main,Port Hollischester,Uganda,abernathy_llc@example.com,"913-808-8615",Brown Pass,"736","54447",ac1da9e4-7e4b-42ab-b9a5-b87cc4f30c2c
e22c13bc-4ea3-4f85-8421-a7a5d29748b5,2025-05-10 14:16:55.177,2025-05-10 14:16:55.177,0,main,Marineshire,Uganda,abernathy_llc@example.com,(564) 640-1339,Zemlak Rapid,"726","06290",ac1da9e4-7e4b-42ab-b9a5-b87cc4f30c2c
e25f450c-0df1-43e4-b598-33121f5c428e,2025-05-10 14:16:55.179,2025-05-10 14:16:55.179,0,main,Odellhaven,Western Sahara,schiller_llc@example.com,(728) 689-4123,Darcy Turnpike,"899","41804","0a0bf8cc-7343-4633-8f32-ab147d875cf4"
ddef35ef-be45-4d8c-b870-dbd3d6c30979,2025-05-10 14:16:55.182,2025-05-10 14:16:55.182,0,main,Lonnietown,Chile,schiller_llc@example.com,(010) 263-3323,Mindy Hills,"795","73398","0a0bf8cc-7343-4633-8f32-ab147d875cf4"
"373c09cd-9f46-4607-af6a-09835414a7f3",2025-05-10 14:16:55.185,2025-05-10 14:16:55.185,0,main,North Elmirafort,Montenegro,abshire_o'conner@example.com,"302.649.8375",Greg Crossroad,"581","43116","20cf9bea-8837-4ce6-94a3-44353caf9d4a"
f394ed3f-6232-46aa-812e-ec367b54c760,2025-05-10 14:16:55.187,2025-05-10 14:16:55.187,0,main,O'Connellstad,Macao,abshire_o'conner@example.com,"478.137.0954",Duane Pass,"719","69389-4628","20cf9bea-8837-4ce6-94a3-44353caf9d4a"
c927e315-4c19-48db-b91c-4dcb02cf61da,2025-05-10 14:16:55.190,2025-05-10 14:16:55.190,0,main,Jaimeton,United Arab Emirates,boyle_and_sons@example.com,"510.754.1022",Sherrill Estate,"105","13125","64452d14-0b6b-460a-b0e3-d7b8bcf86312"
"2dfa216e-e422-46d0-a904-351b65bc3c40",2025-05-10 14:16:55.192,2025-05-10 14:16:55.192,0,main,New Yvonneshire,French Guiana,boyle_and_sons@example.com,"1-043-664-9698",Bergnaum Ridges,"341","08791-4073","64452d14-0b6b-460a-b0e3-d7b8bcf86312"
"1995e4a0-809c-4d23-afd8-517f38ed20f2",2025-05-10 14:16:55.195,2025-05-10 14:16:55.195,0,main,North Thi,Jersey,rau_legros@example.com,"899-580-4149",Wisoky Locks,"342","47986-4431",b4b334ab-3a74-41a7-8ed4-92af77ea648d
"694aaece-7087-43f8-8540-b2da2ec29901",2025-05-10 14:16:55.200,2025-05-10 14:16:55.200,0,main,Merrieside,"Virgin Islands, U.S.",rau_legros@example.com,"905-582-8993",Davis Ville,"397","95607",b4b334ab-3a74-41a7-8ed4-92af77ea648d
f1252401-f91b-4e4b-8877-a94b2e0c7697,2025-05-10 14:16:55.203,2025-05-10 14:16:55.203,0,main,Elijahchester,Sierra Leone,wolff_effertz@example.com,(700) 949-7870,Reichert Tunnel,"476","56397",ff856774-0ccf-429b-8232-dfd84c0f6401
"998e5344-39d2-4150-80a1-080100f48b96",2025-05-10 14:16:55.205,2025-05-10 14:16:55.205,0,main,Rueckertown,South Georgia and the South Sandwich Islands,wolff_effertz@example.com,(900) 641-6446,Zella Crest,"81","02241-5136",ff856774-0ccf-429b-8232-dfd84c0f6401
"8b7fcb30-cb28-4564-90fb-dc12390bc83d",2025-05-10 14:16:55.208,2025-05-10 14:16:55.208,0,main,East Fritzborough,Central African Republic,kutch_group@example.com,"878-722-0771",Richelle Causeway,"112","11127","66dac129-f388-4262-822d-c5a35d129154"
"39280c95-ab67-4d0b-8009-e7fe11fb2b6b",2025-05-10 14:16:55.211,2025-05-10 14:16:55.211,0,main,New Joey,Gabon,kutch_group@example.com,"1-398-350-1334",Ledner Mount,"348","01303","66dac129-f388-4262-822d-c5a35d129154"
"891fda00-2ae5-4f61-956e-1e97d0a21818",2025-05-10 14:16:55.213,2025-05-10 14:16:55.213,0,main,Port Alona,Armenia,brakus_and_sons@example.com,"1-875-990-1750",Meaghan Brook,"630","17373-8900",a08ac822-9a5b-4b8e-bcbb-1603f0cdb729
"8f813520-76f9-4a60-b448-dacb45ccf917",2025-05-10 14:16:55.216,2025-05-10 14:16:55.216,0,main,Kalistad,Kuwait,brakus_and_sons@example.com,(669) 529-6729,Stark Fields,"632","90803",a08ac822-9a5b-4b8e-bcbb-1603f0cdb729
beab821b-75dd-4e8d-84bc-a084e690f2d3,2025-05-10 14:16:55.220,2025-05-10 14:16:55.220,0,main,Laraville,Guatemala,deckow_runolfsdottir@example.com,"283.590.4535",Willian Cape,"330","25227-3050","4c7a2cc5-1e03-4337-8901-93c0b46585af"
e0acb885-9c9c-45f3-9724-a7e6d314bdfd,2025-05-10 14:16:55.223,2025-05-10 14:16:55.223,0,main,New Jacquesland,Antigua and Barbuda,deckow_runolfsdottir@example.com,"1-370-369-0470",Anderson Plaza,"503","06885","4c7a2cc5-1e03-4337-8901-93c0b46585af"
"5f357414-74e5-4331-985a-2868e686d299",2025-05-10 14:16:55.226,2025-05-10 14:16:55.226,0,main,Davisport,Montserrat,pouros_zemlak@example.com,"565.876.5474",Scottie Islands,"113","40156-7188","3a849f1f-9394-4cdf-b654-3e9bdac5817e"
"21a62250-f30c-49c9-bf09-4258506a1795",2025-05-10 14:16:55.228,2025-05-10 14:16:55.228,0,main,New Lurline,Spain,pouros_zemlak@example.com,"1-302-953-8434",Sporer Parks,"806","46677","3a849f1f-9394-4cdf-b654-3e9bdac5817e"
"694e43f7-2b34-4226-af8e-3de38c0ba67e",2025-05-10 14:16:55.231,2025-05-10 14:16:55.231,0,main,Port Mickey,Burkina Faso,kshlerin_and_sons@example.com,"380-457-7679",Rosenbaum Causeway,"56","98427-5997","78d3f0da-e4b5-4885-8c2a-24b1f85afe44"
"4a5775f9-a95b-4e97-99a0-ff41af03d3d2",2025-05-10 14:16:55.234,2025-05-10 14:16:55.234,0,main,Feilside,Slovakia (Slovak Republic),kshlerin_and_sons@example.com,"1-372-599-9792",Denesik Roads,"539","91146-7967","78d3f0da-e4b5-4885-8c2a-24b1f85afe44"
"55e01c96-8fbc-48f7-8b67-d2fb321ba70a",2025-05-10 14:16:55.237,2025-05-10 14:16:55.237,0,main,West Gailberg,Gabon,lesch_group@example.com,"797.430.7282",Anjanette Springs,"842","46572-1244","970bd741-66ca-4fce-ba3a-0e8801f227ee"
c0bc3f1f-54e3-47db-b5fa-bb999f889513,2025-05-10 14:16:55.239,2025-05-10 14:16:55.239,0,main,East Leisaside,Holy See (Vatican City State),lesch_group@example.com,(734) 469-8478,Runte Hollow,"589","14864","970bd741-66ca-4fce-ba3a-0e8801f227ee"
cf7d2fa5-e2a2-45f7-bb47-95d52af6d0c5,2025-05-10 14:16:55.243,2025-05-10 14:16:55.243,0,main,Adrianfort,Grenada,doyle_cronin_and_streich@example.com,"1-128-266-4834",Dario Viaduct,"938","26188","84198896-de25-4d17-b47d-11a0c80fc396"
"1a9ca824-40da-4054-8321-d27c63402b8e",2025-05-10 14:16:55.247,2025-05-10 14:16:55.247,0,main,Murazikside,Oman,doyle_cronin_and_streich@example.com,"677.380.4069",Loan Coves,"885","41515-3581","84198896-de25-4d17-b47d-11a0c80fc396"